NORAD_CAT_ID,OBJECT_NAME,OBJECT_TYPE,EPOCH,MEAN_MOTION,ECCENTRICITY,INCLINATION,RA_OF_ASC_NODE,ARG_OF_PERICENTER,MEAN_ANOMALY,BSTAR,MEAN_MOTION_DOT,MEAN_MOTION_DDOT,TLE_LINE0,TLE_LINE1,TLE_LINE2,SEMIMAJOR_AXIS,PERIOD,APOGEE,PERIGEE,DECAYED
50176.0,STARLINK-3293,PAYLOAD,2022-07-25 00:18:12,15.08843475,0.0002207,53.2168,71.3527,58.4259,301.6948,5.4817e-05,5.84e-06,0.0,0 STARLINK-3293,1 50176U 21125W   22206.01265023  .00000584  00000-0  54817-4 0  9997,2 50176  53.2168  71.3527 0002207  58.4259 301.6948 15.08843475 33681,6917.87,95.437,541.262,538.2080000000002,0.0
50176.0,STARLINK-3293,PAYLOAD,2022-07-25 08:15:08,15.08842542,0.0002154,53.2165,69.8661,60.3747,299.7459,8.8657e-05,1.123e-05,0.0,0 STARLINK-3293,1 50176U 21125W   22206.34385112  .00001123  00000-0  88657-4 0  9994,2 50176  53.2165  69.8661 0002154  60.3747 299.7459 15.08842542 36865,6917.873000000001,95.437,541.2280000000002,538.248,0.0
50176.0,STARLINK-3293,PAYLOAD,2022-07-25 20:58:13,15.08844938,0.0002077,53.2167,67.4855,60.92,299.2,0.00012791,1.748e-05,0.0,0 STARLINK-3293,1 50176U 21125W   22206.87376922  .00001748  00000-0  12791-3 0  9999,2 50176  53.2167  67.4855 0002077  60.9200 299.2000 15.08844938 36947,6917.865,95.437,541.1669999999998,538.293,0.0
50176.0,STARLINK-3293,PAYLOAD,2022-07-26 01:44:22,15.08850919,0.0002166999999999,53.2169,66.5941,61.0428,299.0781,0.00027033,4.018e-05,0.0,0 STARLINK-3293,1 50176U 21125W   22207.07248775  .00004018  00000-0  27033-3 0  9994,2 50176  53.2169  66.5941 0002167  61.0428 299.0781 15.08850919 33845,6917.847,95.437,541.211,538.2130000000002,0.0
50176.0,STARLINK-3293,PAYLOAD,2022-07-26 08:05:55,15.08852582,0.000214,53.2167,65.405,60.6647,299.4559,0.00032494,4.889e-05,0.0,0 STARLINK-3293,1 50176U 21125W   22207.33744567  .00004889  00000-0  32494-3 0  9996,2 50176  53.2167  65.4050 0002140  60.6647 299.4559 15.08852582 37019,6917.842,95.437,541.187,538.227,0.0
50176.0,STARLINK-3293,PAYLOAD,2022-07-26 17:38:14,15.08845267,0.0002041,53.2171,63.6209,67.586,292.5349,0.00011923,1.6100000000000002e-05,0.0,0 STARLINK-3293,1 50176U 21125W   22207.73488744  .00001610  00000-0  11923-3 0  9995,2 50176  53.2171  63.6209 0002041  67.5860 292.5349 15.08845267 33944,6917.864000000001,95.437,541.141,538.317,0.0
50176.0,STARLINK-3293,PAYLOAD,2022-07-26 20:49:00,15.08838509,0.0002154999999999,53.2171,63.0267,62.3882,297.7329,4.5572e-05,4.37e-06,0.0,0 STARLINK-3293,1 50176U 21125W   22207.86737128  .00000437  00000-0  45572-4 0  9996,2 50176  53.2171  63.0267 0002155  62.3882 297.7329 15.08838509 37091,6917.885,95.438,541.241,538.259,0.0
50176.0,STARLINK-3293,PAYLOAD,2022-07-27 01:35:10,15.08839598,0.0002165999999999,53.2171,62.1343,62.1413,297.9798,4.8317e-05,4.81e-06,0.0,0 STARLINK-3293,1 50176U 21125W   22208.06609075  .00000481  00000-0  48317-4 0  9997,2 50176  53.2171  62.1343 0002166  62.1413 297.9798 15.08839598 33992,6917.882,95.438,541.245,538.248,0.0
50176.0,STARLINK-3293,PAYLOAD,2022-07-27 07:56:42,15.08840615,0.0002159,53.2171,60.9449,62.3518,297.7693,0.00011857,1.599e-05,0.0,0 STARLINK-3293,1 50176U 21125W   22208.33105054  .00001599  00000-0  11857-3 0  9994,2 50176  53.2171  60.9449 0002159  62.3518 297.7693 15.08840615 37162,6917.879,95.438,541.237,538.25,0.0
50176.0,STARLINK-3293,PAYLOAD,2022-07-27 19:04:24,15.08846021,0.0002158,53.217,58.8631,63.037,297.0842,0.00013683,1.89e-05,0.0,0 STARLINK-3293,1 50176U 21125W   22208.79472696  .00001890  00000-0  13683-3 0  9996,2 50176  53.2170  58.8631 0002158  63.0370 297.0842 15.08846021 37237,6917.861999999999,95.437,541.22,538.234,0.0
50176.0,STARLINK-3293,PAYLOAD,2022-07-27 23:50:33,15.08847688,0.0002133999999999,53.2178,57.9708,63.8943,296.2268,9.5877e-05,1.238e-05,0.0,0 STARLINK-3293,1 50176U 21125W   22208.99344464  .00001238  00000-0  95877-4 0  9991,2 50176  53.2178  57.9708 0002134  63.8943 296.2268 15.08847688 37264,6917.857,95.437,541.198,538.246,0.0
50176.0,STARLINK-3293,PAYLOAD,2022-07-28 17:19:48,15.08835814,0.0002103,53.2176,54.6998,63.5488,296.5719,5.5761e-05,5.99e-06,0.0,0 STARLINK-3293,1 50176U 21125W   22209.72209086  .00000599  00000-0  55761-4 0  9990,2 50176  53.2176  54.6998 0002103  63.5488 296.5719 15.08835814 37378,6917.893,95.438,541.2130000000002,538.303,0.0
50176.0,STARLINK-3293,PAYLOAD,2022-07-28 22:05:58,15.08834362,0.0002104,53.2176,53.8077,63.3487,296.7721,5.6092e-05,6.04e-06,0.0,0 STARLINK-3293,1 50176U 21125W   22209.92081221  .00000604  00000-0  56092-4 0  9996,2 50176  53.2176  53.8077 0002104  63.3487 296.7721 15.08834362 34273,6917.898,95.438,541.2180000000002,538.307,0.0
50176.0,STARLINK-3293,PAYLOAD,2022-07-29 06:02:53,15.08837528,0.0002112,53.2177,52.3209,63.408,296.7128,7.083899999999999e-05,8.39e-06,0.0,0 STARLINK-3293,1 50176U 21125W   22210.25201039  .00000839  00000-0  70839-4 0  9990,2 50176  53.2177  52.3209 0002112  63.4080 296.7128 15.08837528 37455,6917.888000000001,95.438,541.214,538.2919999999998,0.0
50176.0,STARLINK-3293,PAYLOAD,2022-07-29 13:59:49,15.08840895,0.0002041999999999,53.2175,50.8338,65.1779,294.9426,7.4744e-05,9.02e-06,0.0,0 STARLINK-3293,1 50176U 21125W   22210.58320774  .00000902  00000-0  74744-4 0  9994,2 50176  53.2175  50.8338 0002042  65.1779 294.9426 15.08840895 34375,6917.878000000002,95.437,541.155,538.33,0.0
50176.0,STARLINK-3293,PAYLOAD,2022-07-29 20:21:21,15.088440599999998,0.000207,53.2177,49.6447,66.3229,293.798,6.1931e-05,6.98e-06,0.0,0 STARLINK-3293,1 50176U 21125W   22210.84816567  .00000698  00000-0  61931-4 0  9999,2 50176  53.2177  49.6447 0002070  66.3229 293.7980 15.08844060 37540,6917.868,95.437,541.165,538.3009999999998,0.0
50176.0,STARLINK-3293,PAYLOAD,2022-07-30 05:53:41,15.0883402,0.0002165,53.2178,47.8597,61.3728,298.7482,-3.826e-05,-8.97e-06,0.0,0 STARLINK-3293,1 50176U 21125W   22211.24561459 -.00000897  00000-0 -38260-4 0  9993,2 50176  53.2178  47.8597 0002165  61.3728 298.7482 15.08834020 34477,6917.899,95.438,541.261,538.266,0.0
50176.0,STARLINK-3293,PAYLOAD,2022-07-30 13:50:37,15.08841275,0.0001993,53.2182,46.3724,67.9099,292.2105,-0.00020296,-3.517e-05,0.0,0 STARLINK-3293,1 50176U 21125W   22211.57681798 -.00003517  00000-0 -20296-3 0  9999,2 50176  53.2182  46.3724 0001993  67.9099 292.2105 15.08841275 37653,6917.876,95.437,541.12,538.363,0.0
50176.0,STARLINK-3293,PAYLOAD,2022-07-30 21:47:32,15.08829235,0.000197,53.2172,44.8864,63.6749,296.4445,1.4515e-05,-5.7e-07,0.0,0 STARLINK-3293,1 50176U 21125W   22211.90801966 -.00000057  00000-0  14515-4 0  9990,2 50176  53.2172  44.8864 0001970  63.6749 296.4445 15.08829235 37701,6917.913000000001,95.438,541.141,538.415,0.0
50176.0,STARLINK-3293,PAYLOAD,2022-07-31 12:06:01,15.08833427,0.0001976,53.2182,42.2104,63.869,296.2505,1.7987999999999998e-05,-2e-08,0.0,0 STARLINK-3293,1 50176U 21125W   22212.50418021 -.00000002  00000-0  17988-4 0  9990,2 50176  53.2182  42.2104 0001976  63.8690 296.2505 15.08833427 34669,6917.9,95.438,541.132,538.399,0.0
50176.0,STARLINK-3293,PAYLOAD,2022-07-31 21:38:17,15.08859441,0.0001958,53.2179,40.4263,67.1336,292.9863,0.0002044999999999,2.97e-05,0.0,0 STARLINK-3293,1 50176U 21125W   22212.90159607  .00002970  00000-0  20450-3 0  9998,2 50176  53.2179  40.4263 0001958  67.1336 292.9863 15.08859441 34726,6917.821,95.436,541.04,538.331,0.0
50176.0,STARLINK-3293,PAYLOAD,2022-08-01 11:56:47,15.08834868,0.0002053,53.2182,37.7499,66.7349,293.3859,0.00011377,1.523e-05,0.0,0 STARLINK-3293,1 50176U 21125W   22213.49777512  .00001523  00000-0  11377-3 0  9995,2 50176  53.2182  37.7499 0002053  66.7349 293.3859 15.08834868 37949,6917.896,95.438,541.181,538.341,0.0
50176.0,STARLINK-3293,PAYLOAD,2022-08-01 19:53:43,15.08838006,0.0002052,53.2179,36.2629,66.5451,293.5757,0.00010254,1.344e-05,0.0,0 STARLINK-3293,1 50176U 21125W   22213.82897412  .00001344  00000-0  10254-3 0  9998,2 50176  53.2179  36.2629 0002052  66.5451 293.5757 15.08838006 37997,6917.886,95.438,541.1709999999998,538.332,0.0
50176.0,STARLINK-3293,PAYLOAD,2022-08-02 11:47:34,15.08844335,0.0001873,53.2177,33.2897,65.9666,294.1522,0.00012545,1.709e-05,0.0,0 STARLINK-3293,1 50176U 21125W   22214.49136860  .00001709  00000-0  12545-3 0  9995,2 50176  53.2177  33.2897 0001873  65.9666 294.1522 15.08844335 38091,6917.8669999999975,95.437,541.028,538.436,0.0
50176.0,STARLINK-3293,PAYLOAD,2022-08-02 21:19:53,15.08845039,0.0001903,53.218,31.5061,67.5144,292.6049,-0.00012108,-2.215e-05,0.0,0 STARLINK-3293,1 50176U 21125W   22214.88881376 -.00002215  00000-0 -12108-3 0  9997,2 50176  53.2180  31.5061 0001903  67.5144 292.6049 15.08845039 38158,6917.865,95.437,541.0459999999998,538.414,0.0
50176.0,STARLINK-3293,PAYLOAD,2022-08-03 05:16:49,15.0884407,0.0001932,53.218,30.0192,67.4493,292.6704,-0.00012915,-2.343e-05,0.0,0 STARLINK-3293,1 50176U 21125W   22215.22001368 -.00002343  00000-0 -12915-3 0  9999,2 50176  53.2180  30.0192 0001932  67.4493 292.6704 15.08844070 35075,6917.868,95.437,541.069,538.396,0.0
50176.0,STARLINK-3293,PAYLOAD,2022-08-03 10:02:58,15.08841279,0.0001828,53.218,29.1269,68.0126,292.106,-7.6755e-05,-1.51e-05,0.0,0 STARLINK-3293,1 50176U 21125W   22215.41873363 -.00001510  00000-0 -76755-4 0  9990,2 50176  53.2180  29.1269 0001828  68.0126 292.1060 15.08841279 38232,6917.876,95.437,541.006,538.477,0.0
50176.0,STARLINK-3293,PAYLOAD,2022-08-03 16:24:31,15.08837228,0.0001831999999999,53.218,27.9374,66.773,293.3455,3.8537e-05,3.25e-06,0.0,0 STARLINK-3293,1 50176U 21125W   22215.68369458  .00000325  00000-0  38537-4 0  9991,2 50176  53.2180  27.9374 0001832  66.7730 293.3455 15.08837228 38270,6917.889,95.438,541.021,538.487,0.0
50176.0,STARLINK-3293,PAYLOAD,2022-08-03 21:10:40,15.08840046,0.0001821,53.2182,27.0449,67.2732,292.8452,2.0019e-05,3e-07,0.0,0 STARLINK-3293,1 50176U 21125W   22215.88241338  .00000030  00000-0  20019-4 0  9998,2 50176  53.2182  27.0449 0001821  67.2732 292.8452 15.08840046 38309,6917.88,95.438,541.005,538.486,0.0
